STARLINK-30494          
1 57970U 23151G   26068.36049035 -.00001272  00000+0 -35691-4 0  9993
2 57970  43.0027 192.4566 0001155 241.5536 118.5200 15.28417441137406
STARLINK-34367          
1 64452U 25130Q   26068.48056697  .00021727  00000+0  74365-3 0  9995
2 64452  53.1590  89.3241 0001295  77.8975 282.2171 15.30196054 40666
